[{"spaceTrack":{"CCSDS_OMM_VERS":"2.0","COMMENT":"GENERATED VIA SPACE-TRACK.ORG API","CREATION_DATE":"2021-07-02T17:51:43","ORIGINATOR":"18 SPCS","OBJECT_NAME":"STARLINK-2508","OBJECT_ID":"2021-040AE","CENTER_NAME":"EARTH","REF_FRAME":"TEME","TIME_SYSTEM":"UTC","MEAN_ELEMENT_THEORY":"SGP4","EPOCH":"2021-07-02T12:00:02.000160","MEAN_MOTION":15.73183356,"ECCENTRICITY":0.0001346,"INCLINATION":53.049,"RA_OF_ASC_NODE":313.3806,"ARG_OF_PERICENTER":48.3057,"MEAN_ANOMALY":236.8605,"EPHEMERIS_TYPE":0,"CLASSIFICATION_TYPE":"U","NORAD_CAT_ID":48456,"ELEMENT_SET_NO":999,"REV_AT_EPOCH":374,"BSTAR":-0.000052389,"MEAN_MOTION_DOT":-0.00007962,"MEAN_MOTION_DDOT":0,"SEMIMAJOR_AXIS":6727.943,"PERIOD":91.534,"APOAPSIS":350.713,"PERIAPSIS":348.902,"OBJECT_TYPE":"PAYLOAD","RCS_SIZE":"LARGE","COUNTRY_CODE":"US","LAUNCH_DATE":"2021-05-09","SITE":"AFETR","DECAY_DATE":null,"DECAYED":0,"FILE":3068555,"GP_ID":180169132,"TLE_LINE0":"0 STARLINK-2508","TLE_LINE1":"1 48456U 21040AE  21183.50002315 -.00007962  00000-0 -52389-4 0  9992","TLE_LINE2":"2 48456  53.0490 313.3806 0001346  48.3057 236.8605 15.73183356  3741"},"version":"v1.0","launch":"6079bd1c9a06446e8c61bf76","longitude":-47.04379913729229,"latitude":-52.91881437382456,"height_km":368.90621218380875,"velocity_kms":7.68742403808102,"id":"60a44136b913a10006eea5c3"},{"spaceTrack":{"CCSDS_OMM_VERS":"2.0","COMMENT":"GENERATED VIA SPACE-TRACK.ORG API","CREATION_DATE":"2021-07-02T17:51:43","ORIGINATOR":"18 SPCS","OBJECT_NAME":"STARLINK-2241","OBJECT_ID":"2021-041AK","CENTER_NAME":"EARTH","REF_FRAME":"TEME","TIME_SYSTEM":"UTC","MEAN_ELEMENT_THEORY":"SGP4","EPOCH":"2021-07-02T12:00:02.000160","MEAN_MOTION":15.02328663,"ECCENTRICITY":0.000075,"INCLINATION":53.0511,"RA_OF_ASC_NODE":262.8405,"ARG_OF_PERICENTER":125.3974,"MEAN_ANOMALY":74.8392,"EPHEMERIS_TYPE":0,"CLASSIFICATION_TYPE":"U","NORAD_CAT_ID":48586,"ELEMENT_SET_NO":999,"REV_AT_EPOCH":356,"BSTAR":-0.00091218,"MEAN_MOTION_DOT":-0.00012435,"MEAN_MOTION_DDOT":0,"SEMIMAJOR_AXIS":6937.855,"PERIOD":95.851,"APOAPSIS":560.24,"PERIAPSIS":559.199,"OBJECT_TYPE":"PAYLOAD","RCS_SIZE":"LARGE","COUNTRY_CODE":"US","LAUNCH_DATE":"2021-05-15","SITE":"AFETR","DECAY_DATE":null,"DECAYED":0,"FILE":3068555,"GP_ID":180169075,"TLE_LINE0":"0 STARLINK-2241","TLE_LINE1":"1 48586U 21041AK  21183.50002315 -.00012435  00000-0 -91218-3 0  9991","TLE_LINE2":"2 48586  53.0511 262.8405 0000750 125.3974  74.8392 15.02328663  3561"},"version":"v1.0","launch":"605b4b95aa5433645e37d041","longitude":56.106876732259906,"latitude":47.68021415597397,"height_km":564.7888540052018,"velocity_kms":7.58479359213578,"id":"60ad51756fc866000628c906"},{"spaceTrack":{"CCSDS_OMM_VERS":"2.0","COMMENT":"GENERATED VIA SPACE-TRACK.ORG API","CREATION_DATE":"2021-07-02T17:51:43","ORIGINATOR":"18 SPCS","OBJECT_NAME":"STARLINK-2244","OBJECT_ID":"2021-041AM","CENTER_NAME":"EARTH","REF_FRAME":"TEME","TIME_SYSTEM":"UTC","MEAN_ELEMENT_THEORY":"SGP4","EPOCH":"2021-07-02T12:00:02.000160","MEAN_MOTION":15.19521671,"ECCENTRICITY":0.0001708,"INCLINATION":53.0528,"RA_OF_ASC_NODE":253.7612,"ARG_OF_PERICENTER":55.4351,"MEAN_ANOMALY":149.1993,"EPHEMERIS_TYPE":0,"CLASSIFICATION_TYPE":"U","NORAD_CAT_ID":48588,"ELEMENT_SET_NO":999,"REV_AT_EPOCH":362,"BSTAR":-0.053862,"MEAN_MOTION_DOT":-0.01060654,"MEAN_MOTION_DDOT":0,"SEMIMAJOR_AXIS":6885.422,"PERIOD":94.767,"APOAPSIS":508.463,"PERIAPSIS":506.111,"OBJECT_TYPE":"PAYLOAD","RCS_SIZE":"LARGE","COUNTRY_CODE":"US","LAUNCH_DATE":"2021-05-15","SITE":"AFETR","DECAY_DATE":null,"DECAYED":0,"FILE":3068555,"GP_ID":180169003,"TLE_LINE0":"0 STARLINK-2244","TLE_LINE1":"1 48588U 21041AM  21183.50002315 -.01060654  00000-0 -53862-1 0  9991","TLE_LINE2":"2 48588  53.0528 253.7612 0001708  55.4351 149.1993 15.19521671  3628"},"version":"v1.0","launch":"605b4b95aa5433645e37d041","longitude":95.52905439592128,"latitude":52.39724425957409,"height_km":515.8437799406083,"velocity_kms":7.61250661846544,"id":"60ad51756fc866000628c908"},{"spaceTrack":{"CCSDS_OMM_VERS":"2.0","COMMENT":"GENERATED VIA SPACE-TRACK.ORG API","CREATION_DATE":"2021-07-02T17:51:43","ORIGINATOR":"18 SPCS","OBJECT_NAME":"STARLINK-2236","OBJECT_ID":"2021-041AF","CENTER_NAME":"EARTH","REF_FRAME":"TEME","TIME_SYSTEM":"UTC","MEAN_ELEMENT_THEORY":"SGP4","EPOCH":"2021-07-02T12:00:02.000160","MEAN_MOTION":15.42148779,"ECCENTRICITY":0.0001593,"INCLINATION":53.0522,"RA_OF_ASC_NODE":253.7473,"ARG_OF_PERICENTER":49.7542,"MEAN_ANOMALY":206.0337,"EPHEMERIS_TYPE":0,"CLASSIFICATION_TYPE":"U","NORAD_CAT_ID":48582,"ELEMENT_SET_NO":999,"REV_AT_EPOCH":362,"BSTAR":-0.0011145,"MEAN_MOTION_DOT":-0.00048591,"MEAN_MOTION_DDOT":0,"SEMIMAJOR_AXIS":6817.906,"PERIOD":93.376,"APOAPSIS":440.857,"PERIAPSIS":438.685,"OBJECT_TYPE":"PAYLOAD","RCS_SIZE":"LARGE","COUNTRY_CODE":"US","LAUNCH_DATE":"2021-05-15","SITE":"AFETR","DECAY_DATE":null,"DECAYED":0,"FILE":3068555,"GP_ID":180169365,"TLE_LINE0":"0 STARLINK-2236","TLE_LINE1":"1 48582U 21041AF  21183.50002315 -.00048591  00000-0 -11145-2 0  9999","TLE_LINE2":"2 48582  53.0522 253.7473 0001593  49.7542 206.0337 15.42148779  3626"},"version":"v1.0","launch":"605b4b95aa5433645e37d041","longitude":175.50254875256607,"latitude":-5.133192631464748,"height_km":442.36523741100336,"velocity_kms":7.647045889681587,"id":"60ad5176167a2900060b8a5f"},{"spaceTrack":{"CCSDS_OMM_VERS":"2.0","COMMENT":"GENERATED VIA SPACE-TRACK.ORG API","CREATION_DATE":"2021-07-02T17:51:43","ORIGINATOR":"18 SPCS","OBJECT_NAME":"STARLINK-2222","OBJECT_ID":"2021-041V","CENTER_NAME":"EARTH","REF_FRAME":"TEME","TIME_SYSTEM":"UTC","MEAN_ELEMENT_THEORY":"SGP4","EPOCH":"2021-07-02T12:00:02.000160","MEAN_MOTION":15.02333699,"ECCENTRICITY":0.0001057,"INCLINATION":53.0513,"RA_OF_ASC_NODE":263.3764,"ARG_OF_PERICENTER":87.3795,"MEAN_ANOMALY":110.4009,"EPHEMERIS_TYPE":0,"CLASSIFICATION_TYPE":"U","NORAD_CAT_ID":48572,"ELEMENT_SET_NO":999,"REV_AT_EPOCH":356,"BSTAR":-0.00095686,"MEAN_MOTION_DOT":-0.00013031,"MEAN_MOTION_DDOT":0,"SEMIMAJOR_AXIS":6937.839,"PERIOD":95.851,"APOAPSIS":560.438,"PERIAPSIS":558.971,"OBJECT_TYPE":"PAYLOAD","RCS_SIZE":"LARGE","COUNTRY_CODE":"US","LAUNCH_DATE":"2021-05-15","SITE":"AFETR","DECAY_DATE":null,"DECAYED":0,"FILE":3068555,"GP_ID":180169001,"TLE_LINE0":"0 STARLINK-2222","TLE_LINE1":"1 48572U 21041V   21183.50002315 -.00013031  00000-0 -95686-3 0  9992","TLE_LINE2":"2 48572  53.0513 263.3764 0001057  87.3795 110.4009 15.02333699  3568"},"version":"v1.0","launch":"605b4b95aa5433645e37d041","longitude":53.52914427890895,"latitude":46.53977778903355,"height_km":564.1085387843568,"velocity_kms":7.58527246086695,"id":"60ad5176167a2900060b8a60"},{"spaceTrack":{"CCSDS_OMM_VERS":"2.0","COMMENT":"GENERATED VIA SPACE-TRACK.ORG API","CREATION_DATE":"2021-07-02T17:51:43","ORIGINATOR":"18 SPCS","OBJECT_NAME":"STARLINK-2167","OBJECT_ID":"2021-041G","CENTER_NAME":"EARTH","REF_FRAME":"TEME","TIME_SYSTEM":"UTC","MEAN_ELEMENT_THEORY":"SGP4","EPOCH":"2021-07-02T12:00:02.000160","MEAN_MOTION":15.18002356,"ECCENTRICITY":0.0001624,"INCLINATION":53.0535,"RA_OF_ASC_NODE":253.8778,"ARG_OF_PERICENTER":54.3564,"MEAN_ANOMALY":85.0439,"EPHEMERIS_TYPE":0,"CLASSIFICATION_TYPE":"U","NORAD_CAT_ID":48559,"ELEMENT_SET_NO":999,"REV_AT_EPOCH":362,"BSTAR":-0.056354,"MEAN_MOTION_DOT":-0.01075056,"MEAN_MOTION_DDOT":0,"SEMIMAJOR_AXIS":6890.016,"PERIOD":94.862,"APOAPSIS":513,"PERIAPSIS":510.762,"OBJECT_TYPE":"PAYLOAD","RCS_SIZE":"LARGE","COUNTRY_CODE":"US","LAUNCH_DATE":"2021-05-15","SITE":"AFETR","DECAY_DATE":null,"DECAYED":0,"FILE":3068555,"GP_ID":180169508,"TLE_LINE0":"0 STARLINK-2167","TLE_LINE1":"1 48559U 21041G   21183.50002315 -.01075056  00000-0 -56354-1 0  9990","TLE_LINE2":"2 48559  53.0535 253.8778 0001624  54.3564  85.0439 15.18002356  3625"},"version":"v1.0","launch":"605b4b95aa5433645e37d041","longitude":11.46241356354167,"latitude":24.161587877632577,"height_km":514.8628988627443,"velocity_kms":7.610139357502435,"id":"60ad51776fc866000628c9c8"},{"spaceTrack":{"CCSDS_OMM_VERS":"2.0","COMMENT":"GENERATED VIA SPACE-TRACK.ORG API","CREATION_DATE":"2021-07-02T17:51:43","ORIGINATOR":"18 SPCS","OBJECT_NAME":"STARLINK-2240","OBJECT_ID":"2021-041AJ","CENTER_NAME":"EARTH","REF_FRAME":"TEME","TIME_SYSTEM":"UTC","MEAN_ELEMENT_THEORY":"SGP4","EPOCH":"2021-07-02T12:00:02.000160","MEAN_MOTION":15.02320621,"ECCENTRICITY":0.000068,"INCLINATION":53.0516,"RA_OF_ASC_NODE":262.7638,"ARG_OF_PERICENTER":138.8859,"MEAN_ANOMALY":60.1745,"EPHEMERIS_TYPE":0,"CLASSIFICATION_TYPE":"U","NORAD_CAT_ID":48585,"ELEMENT_SET_NO":999,"REV_AT_EPOCH":356,"BSTAR":-0.00091523,"MEAN_MOTION_DOT":-0.00012472,"MEAN_MOTION_DDOT":0,"SEMIMAJOR_AXIS":6937.88,"PERIOD":95.852,"APOAPSIS":560.216,"PERIAPSIS":559.273,"OBJECT_TYPE":"PAYLOAD","RCS_SIZE":"LARGE","COUNTRY_CODE":"US","LAUNCH_DATE":"2021-05-15","SITE":"AFETR","DECAY_DATE":null,"DECAYED":0,"FILE":3068555,"GP_ID":180169438,"TLE_LINE0":"0 STARLINK-2240","TLE_LINE1":"1 48585U 21041AJ  21183.50002315 -.00012472  00000-0 -91523-3 0  9990","TLE_LINE2":"2 48585  53.0516 262.7638 0000680 138.8859  60.1745 15.02320621  3561"},"version":"v1.0","launch":"605b4b95aa5433645e37d041","longitude":54.52761666596475,"latitude":47.1474399873802,"height_km":564.8268419476353,"velocity_kms":7.5846454892917885,"id":"60ad5178167a2900060b8acb"}]